#aV2012  3 10  0  0  0.00000000     288 DD+AD WGS84 FIT  NGA
## 1678 518400.00000000   300.00000000 55996 0.0000000000000
+   32     1  2  3  4  5  6  7  8  9 10 11 12 13 14 15 16 17
+         18 19 20 21 22 23 24 25 26 27 28 29 30 31 32  0  0
+          0  0  0  0  0  0  0  0  0  0  0  0  0  0  0  0  0
+          0  0  0  0  0  0  0  0  0  0  0  0  0  0  0  0  0
+          0  0  0  0  0  0  0  0  0  0  0  0  0  0  0  0  0
++         2  2  2  2  2  2  2  2  2  2  2  2  2  2  2  2  2
++         2  2  2  2  2  2  2  2  2  2  2  2  2  2  2  0  0
++         0  0  0  0  0  0  0  0  0  0  0  0  0  0  0  0  0
++         0  0  0  0  0  0  0  0  0  0  0  0  0  0  0  0  0
++         0  0  0  0  0  0  0  0  0  0  0  0  0  0  0  0  0
%c cc cc ccc ccc cccc cccc cccc cccc ccccc ccccc ccccc ccccc
%c cc cc ccc ccc cccc cccc cccc cccc ccccc ccccc ccccc ccccc
%f  0.0000000  0.000000000  0.00000000000  0.000000000000000
%f  0.0000000  0.000000000  0.00000000000  0.000000000000000
%i    0    0    0    0      0      0      0      0         0
%i    0    0    0    0      0      0      0      0         0
/*      NGA, ST. LOUIS,MO.                                  
/*   EPHEMERIS COMPUTED FROM  1 DAYS OF DATA
/*   EPOCHA SMOOTHER  
/* CCCCCCCCCCCCCCCCCCCCCCCCCCCCCCCCCCCCCCCCCCCCCCCCCCCCCCCCC
*  2012  3 10  2  5  0.00000000                                                 
P  1   1330.250485 -16311.435117 -20927.384833    229.365720                    
V  1  24917.651907  -9198.890938   8778.893917      0.076354                    
P  2 -21726.453237  13665.401184   5801.094658    382.185215                    
V  2  -8252.151790   -656.496430 -30410.526900      0.014976                    
P  3  10831.949196 -19161.534128  14203.094036     20.252210                    
V  3   2865.077373  19057.582730  23073.239394      0.050886                    
P  4 -25560.975596   6260.782558  -4945.043878    118.144677                    
V  4   4361.782583  -5104.932904 -30209.894200      0.115000                    
P  5 -11587.693144  10389.652121  21504.821155   -291.976454                    
V  5 -21353.974192 -17157.905524  -3089.847988     -0.043260                    
P  6  13892.267339 -14876.977861  17044.901278     31.838220                    
V  6    362.866125  21693.925187  19066.678422      0.003133                    
P  7 -13663.569928  -9751.694638  20663.260025     63.176047                    
V  7  24127.290482  -9934.007500  11038.975017      0.029661                    
P  8 -23212.131910  -2196.881753  13309.523274      0.773368                    
V  8  15614.752865  -5462.992605  25903.656531      0.000952                    
P  9  -5688.066494  16882.958346 -20259.299469    143.727586                    
V  9 -22891.216418   8614.388201  13963.268914      0.024445                    
P 10 -22426.036573  -6612.030130  12716.359370    -31.704216                    
V 10 -11127.954795 -12330.483696 -25141.527818     -0.013218                    
P 11   5575.961549 -20560.473982 -16049.167411   -240.124208                    
V 11  18028.581223  -9488.227932  19191.925778     -0.037436                    
P 12   5187.819088  19480.374375 -17382.977767     56.965732                    
V 12 -17739.991668 -13025.079319 -19700.502079      0.021333                    
P 13  -6830.220758 -19211.176707  16830.725534    220.386778                    
V 13   6402.592163 -20702.725511 -20935.245631     -0.022209                    
P 14  14916.784558    215.525633 -21788.924384    196.560004                    
V 14  -5527.700258  27497.458710  -3617.234611      0.012236                    
P 15  -3142.327752  26257.624409   -198.012998    -92.158074                    
V 15  -3470.862704   -188.426071  31562.051967      0.003399                    
P 16  12196.563140  -8904.038987  21889.805764   -226.753249                    
V 16  20897.501854  18142.207985  -3963.722892     -0.015638                    
P 17 -14709.074476  -3473.146294 -21674.127918    143.675996                    
V 17   4983.778136 -27472.087408    778.356518     -0.026530                    
P 18  20004.838570  17725.720571   1632.100045    185.409810                    
V 18  -3449.919448   1642.351900  30738.496795      0.018109                    
P 19   7501.900302 -25171.168125   2100.132979   -243.926704                    
V 19   2445.672668   3399.855960  31836.850772     -0.037948                    
P 20  -9017.926344 -20210.405452 -14900.843733     63.441132                    
V 20  16681.561079   8833.452284 -22249.903384     -0.000323                    
P 21  18259.181537   7593.508279  18458.583475   -209.617294                    
V 21 -20312.323792   9527.027359  16007.491134     -0.024951                    
P 22  22692.091772   7068.907797 -11799.719983    143.009695                    
V 22   9855.850168  12102.162631  25704.220962      0.001658                    
P 23  -1499.555412 -25150.943137   7819.947145    225.703063                    
V 23   4465.014599  -9403.762240 -29847.784864     -0.034873                    
P 24  21431.244036   3821.140660  15205.748839   -254.670024                    
V 24  14144.847633  13444.544062 -22962.147467      0.005202                    
P 25  16597.971219  19377.783400  -7505.043213     32.129126                    
V 25  -8968.204297  -3894.037230 -29932.324164      0.002400                    
P 26 -12344.844472  20108.495147  11179.157141   -131.674900                    
V 26   1296.722382 -15360.527271  27935.105737     -0.578958                    
P 27 -13179.850887  16738.245467 -14929.471963    365.164342                    
V 27 -19322.818990   6325.435187  23640.865645      0.039516                    
P 28 -22196.354106 -10826.810414  -9514.458035    120.951709                    
V 28  -8318.752039  -9924.949178  28803.189855      0.040425                    
P 29   6684.424704  20889.155412  15077.842613    292.251703                    
V 29  -5477.237195  18301.299704 -22988.759197      0.036907                    
P 30  19566.612467  -2076.613256  17490.461642    -76.662267                    
V 30  18355.744821  13835.421739 -18512.692672     -0.164527                    
P 31  25467.114695  -6933.514976  -3772.452498    217.665617                    
V 31  -3977.577723   3601.694826 -31567.904762      0.044589                    
P 32   -155.311918 -18633.277195 -18879.518859   -418.241653                    
V 32  18570.061353  15738.548362 -15042.101273     -0.049658                    
EOF
